[{"OBJECT_NAME":"STARLINK-30606","OBJECT_ID":"2023-161N","EPOCH":"2026-03-09T12:10:17.553504","MEAN_MOTION":15.30181359,"ECCENTRICITY":0.00013009,"INCLINATION":53.1624,"RA_OF_ASC_NODE":166.3794,"ARG_OF_PERICENTER":71.7277,"MEAN_ANOMALY":288.3865,"EPHEMERIS_TYPE":0,"CLASSIFICATION_TYPE":"U","NORAD_CAT_ID":58109,"ELEMENT_SET_NO":999,"REV_AT_EPOCH":13439,"BSTAR":-3.1482733e-5,"MEAN_MOTION_DOT":-1.291e-5,"MEAN_MOTION_DDOT":0},{"OBJECT_NAME":"COSMOS 249 DEB","OBJECT_ID":"1968-091DJ","EPOCH":"2026-03-09T22:59:41.072064","MEAN_MOTION":14.2447733,"ECCENTRICITY":0.04678273,"INCLINATION":62.7651,"RA_OF_ASC_NODE":269.2895,"ARG_OF_PERICENTER":43.0913,"MEAN_ANOMALY":320.579,"EPHEMERIS_TYPE":0,"CLASSIFICATION_TYPE":"U","NORAD_CAT_ID":19362,"ELEMENT_SET_NO":999,"REV_AT_EPOCH":90582,"BSTAR":0.0013749035,"MEAN_MOTION_DOT":0.00010099,"MEAN_MOTION_DDOT":0}]
